[{"OBJECT_NAME":"UTMN 2 (RS27S)","OBJECT_ID":"2023-091AP","EPOCH":"2026-03-09T23:09:07.917408","MEAN_MOTION":15.29495965,"ECCENTRICITY":0.00097379,"INCLINATION":97.5194,"RA_OF_ASC_NODE":134.949,"ARG_OF_PERICENTER":76.0788,"MEAN_ANOMALY":284.1534,"EPHEMERIS_TYPE":0,"CLASSIFICATION_TYPE":"U","NORAD_CAT_ID":57203,"ELEMENT_SET_NO":999,"REV_AT_EPOCH":14936,"BSTAR":0.00056135701,"MEAN_MOTION_DOT":0.00016013,"MEAN_MOTION_DDOT":0},{"OBJECT_NAME":"STARLINK-31900","OBJECT_ID":"2024-106W","EPOCH":"2026-03-09T23:56:30.971616","MEAN_MOTION":15.27581578,"ECCENTRICITY":0.00015774,"INCLINATION":43.0024,"RA_OF_ASC_NODE":330.459,"ARG_OF_PERICENTER":255.2584,"MEAN_ANOMALY":104.8093,"EPHEMERIS_TYPE":0,"CLASSIFICATION_TYPE":"U","NORAD_CAT_ID":59942,"ELEMENT_SET_NO":999,"REV_AT_EPOCH":10057,"BSTAR":-5.682209e-5,"MEAN_MOTION_DOT":-1.826e-5,"MEAN_MOTION_DDOT":0}]
